RADARSAT-2              
1 32382U 07061A   26191.82790986 -.00000047  00000+0 -12851-5 0  9994
2 32382  98.5786 198.4222 0001323  84.4428 275.6905 14.29982263969330
